OBJECT_NAME,OBJECT_ID,EPOCH,MEAN_MOTION,ECCENTRICITY,INCLINATION,RA_OF_ASC_NODE,ARG_OF_PERICENTER,MEAN_ANOMALY,EPHEMERIS_TYPE,CLASSIFICATION_TYPE,NORAD_CAT_ID,ELEMENT_SET_NO,REV_AT_EPOCH,BSTAR,MEAN_MOTION_DOT,MEAN_MOTION_DDOT
INMARSAT 4-F1,2005-009A,2026-06-07T14:23:44.938752,1.00272546,.0002762,5.1544,42.7371,36.1222,211.2047,0,U,28628,999,7757,0,.46E-6,0
IRS-P5 (CARTOSAT-1),2005-017A,2026-06-07T19:36:50.316192,14.91025688,.0002639,97.5311,182.3070,91.7693,268.3828,0,U,28649,999,14242,.17427E-3,.1671E-4,0
DIRECTV 8,2005-019A,2026-06-07T14:34:19.628832,1.00271292,.0002924,0.0176,10.0104,72.3447,273.1915,0,U,28659,999,7697,0,.16E-6,0
GALAXY 28 (G-28),2005-022A,2026-06-07T18:25:56.673984,1.00273000,.0002818,3.2754,79.0455,352.8963,73.6032,0,U,28702,999,5188,0,-.185E-5,0
SJ-7,2005-024A,2026-06-07T19:37:05.310048,15.21400874,.0017102,97.7293,188.6697,68.3743,291.9312,0,U,28737,999,14660,.40434E-3,.9037E-4,0
THAICOM 4,2005-028A,2026-06-07T19:07:43.067136,1.00270716,.0001938,0.2201,86.0446,348.4889,228.1024,0,U,28786,999,5215,0,-.347E-5,0
REIMEI (INDEX),2005-031B,2026-06-07T14:08:59.997120,15.10822131,.002056,98.0128,282.1527,141.6570,218.6125,0,U,28810,999,12954,.33604E-3,.5541E-4,0
ANIK F1R,2005-036A,2026-06-07T16:20:26.883744,1.00272662,.0004348,4.2875,76.6976,3.9429,313.2783,0,U,28868,999,4635,0,-.61E-6,0
NAVSTAR 57 (USA 183),2005-038A,2026-06-07T09:41:47.867136,2.00566372,.0127805,54.8864,273.5725,296.0848,81.4655,0,U,28874,999,15164,0,-.35E-6,0
SYRACUSE 3A,2005-041B,2026-06-07T18:47:00.051936,1.00270834,.0003114,4.6198,75.9516,338.6850,169.9300,0,U,28885,999,7565,0,.144E-5,0
BEIJING 1,2005-043A,2026-06-07T20:27:37.707264,14.63527117,.0013738,98.2903,292.0140,315.2930,44.7163,0,U,28890,999,9928,.7249E-4,.327E-5,0
SINAH 1,2005-043D,2026-06-07T19:52:49.141056,14.64151675,.001335,98.2849,293.0960,308.8572,51.1438,0,U,28893,999,9915,.80723E-4,.375E-5,0
CUBESAT XI-V,2005-043F,2026-06-07T16:28:07.118400,14.72607423,.0013074,98.2976,314.1093,232.4490,127.5529,0,U,28895,999,10035,.27894E-3,.1724E-4,0
INMARSAT 4-F2,2005-044A,2026-06-07T14:06:31.486752,1.00271640,.0003059,5.0817,43.7093,32.5652,174.8352,0,U,28899,999,7542,0,-.247E-5,0
COSMOS 2416 (RODNIK-S 1),2005-048A,2026-06-07T16:52:12.039168,12.55600462,.0008085,82.4684,313.7254,183.8894,186.7809,0,U,28908,999,93771,.11294E-3,.29E-6,0
METEOSAT-9 (MSG-2),2005-049B,2026-06-07T18:46:45.077088,1.00268552,.0001734,9.3393,54.2585,348.5772,180.7301,0,U,28912,999,690,0,.137E-5,0
EUTELSAT 174A,2005-052A,2026-06-07T15:57:29.087136,1.00269750,.0006418,4.1945,76.6438,0.5496,232.2371,0,U,28924,999,5223,0,.23E-6,0
ECHOSTAR 10,2006-003A,2026-06-07T16:19:34.469184,1.00271438,.0002112,0.0169,354.2320,50.7280,345.8429,0,U,28935,999,7436,0,-.41E-6,0
SPAINSAT,2006-007A,2026-06-07T08:57:49.535136,1.00272868,.0004982,0.5368,86.7158,348.1198,285.2269,0,U,28945,999,7411,0,-.202E-5,0
JCSAT-5A,2006-010A,2026-06-07T19:11:20.218848,1.00270421,.0002118,1.0842,84.3302,10.2050,221.5446,0,U,29045,999,7367,0,-.313E-5,0
ASTRA 1KR,2006-012A,2026-06-07T18:39:02.918304,1.00272294,.0003545,0.4485,83.2055,351.7636,119.9670,0,U,29055,999,4560,0,.134E-5,0
RESURS-DK 1,2006-021A,2026-06-07T20:19:31.340928,15.13176415,.0006429,69.9339,3.7309,299.4209,60.6315,0,U,29228,999,10116,.16131E-3,.2762E-4,0
GALAXY 16 (G-16),2006-023A,2026-06-07T16:22:41.670336,1.00271915,.0002728,0.0019,244.0292,192.2785,326.4528,0,U,29236,999,7287,0,-.112E-5,0
ARIRANG-2 (KOMPSAT-2),2006-031A,2026-06-07T20:58:27.051744,14.64655081,.0015842,97.8311,343.7712,101.2968,5.8999,0,U,29268,999,6011,.10605E-3,.52E-5,0
EUTELSAT 33F,2006-032A,2026-06-07T18:43:07.922784,1.00274515,.0003463,1.6363,82.3501,350.3779,137.3508,0,U,29270,999,4721,0,.171E-5,0
JCSAT-3A,2006-033A,2026-06-07T19:49:13.490112,1.00270793,.0002129,0.0137,308.6244,136.8868,236.0197,0,U,29272,999,4764,0,-.33E-5,0
KOREASAT 5 (MUGUNGWHA 5),2006-034A,2026-06-07T19:05:50.746272,1.00272436,.0001415,1.7601,83.0984,38.1091,174.5136,0,U,29349,999,4122,0,-.343E-5,0
HINODE (SOLAR-B),2006-041A,2026-06-07T15:31:30.298080,14.68610457,.0016469,98.0548,174.9399,322.4579,37.5475,0,U,29479,999,5347,.16314E-3,.9E-5,0
NAVSTAR 58 (USA 190),2006-042A,2026-06-06T06:33:10.642176,2.00570539,.01063665,54.7093,151.7723,54.1524,125.0487,0,U,29486,999,14417,0,.92E-6,0
DIRECTV 9S,2006-043A,2026-06-07T16:22:04.228896,1.00271622,.0005088,2.3953,81.0171,6.2111,313.1889,0,U,29494,999,5128,0,-.99E-6,0
OPTUS D1,2006-043B,2026-06-07T17:34:12.232992,1.00271759,.0003661,3.0096,79.7717,352.7369,239.1771,0,U,29495,999,7202,0,-.168E-5,0
